FENGYUN 1C DEB          
1 37036U 99025EDU 26053.26025251  .00000749  00000+0  47072-3 0  9995
2 37036  98.7204  48.0527 0122676 214.1840 145.1385 14.03676296647515
FENGYUN 1C DEB          
1 37042U 99025EEA 26073.61056399  .00031661  00000+0  41476-2 0  9998
2 37042  98.5914 204.3383 0050568 103.2452 257.4405 14.79374141741547
FENGYUN 1C DEB          
1 37044U 99025EEC 26073.07229996  .00006227  00000+0  28188-2 0  9990
2 37044  98.9498 178.5191 0499041 278.8448  75.6531 13.71926809851105
FENGYUN 1C DEB          
1 37046U 99025EEE 26057.84119196  .00001454  00000+0  62943-3 0  9994
2 37046  98.5419  75.0747 0050512  85.1293 275.5651 14.25119777652658
FENGYUN 1C DEB          
1 37048U 99025EEG 26067.45823069  .00000516  00000+0  55160-3 0  9996
2 37048  98.8816 286.6691 0253277 285.3592 195.3980 13.65215018633393
FENGYUN 1C DEB          
1 37053U 99025EEM 26073.59482137  .00008955  00000+0  20639-2 0  9998
2 37053  99.1395 193.0896 0040755 253.4687 121.2665 14.55066761663737
FENGYUN 1C DEB          
1 37054U 99025EEN 26050.76066951  .00000587  00000+0  28429-3 0  9994
2 37054  98.5593  35.8785 0098891 265.9580  93.0289 14.19580281654089
FENGYUN 1C DEB          
1 37056U 99025EEQ 26069.31431437  .00002006  00000+0  33259-3 0  9997
2 37056  98.9725 102.5185 0265844 242.3593 115.0385 14.50884654666817
FENGYUN 1C DEB          
1 37057U 99025EER 26073.27894446  .00000447  00000+0  25538-3 0  9999
2 37057  98.9204  90.3906 0283174 247.1295 109.9743 13.96274622648753
FENGYUN 1C DEB          
1 37060U 99025EEU 26068.93966019  .00000721  00000+0  49783-3 0  9999
2 37060  99.0753 130.8559 0081193 108.5241 252.4767 14.00791835639273
FENGYUN 1C DEB          
1 37064U 99025EEY 26055.67338215  .00007096  00000+0  33543-2 0  9999
2 37064  98.9033 212.8625 0106062 249.1829 109.7959 14.17090967825829
FENGYUN 1C DEB          
1 37065U 99025EEZ 26062.77191824  .00001784  00000+0  18966-2 0  9992
2 37065 103.2911 271.1081 0290331  66.3303 296.8007 13.59537000233035
FENGYUN 1C DEB          
1 37069U 99025EFD 26058.07596529  .00003704  00000+0  41283-2 0  9997
2 37069  95.8479   1.2950 0427449  50.3714 313.4343 13.38320839887291
FENGYUN 1C DEB          
1 37077U 99025EFM 26069.70100264  .00001315  00000+0  39813-3 0  9998
2 37077  99.0214 154.7884 0096340  68.8462 292.2989 14.41476439862228
FENGYUN 1C DEB          
1 37079U 99025EFP 26067.61767312  .00029550  00000+0  56764-2 0  9995
2 37079  98.8589 213.6494 0013390 228.2004 131.8052 14.63533918658707
FENGYUN 1C DEB          
1 37081U 99025EFR 26064.65366228  .00023773  00000+0  82922-2 0  9996
2 37081  98.6930 220.0239 0262496 113.3060 249.5973 14.17737278597475
FENGYUN 1C DEB          
1 37400U 99025EFS 26071.29167682  .00000753  00000+0  58200-3 0  9998
2 37400  98.8390 265.7800 0400480 262.0621  93.4905 13.63762366814147
FENGYUN 1C DEB          
1 37404U 99025EFW 26072.95535277  .00001924  00000+0  72495-3 0  9998
2 37404  98.4558  78.4427 0042650 252.8717 137.2010 14.32049773840466
FENGYUN 1C DEB          
1 37406U 99025EFY 26072.89437603  .00001387  00000+0  80631-3 0  9991
2 37406  98.4388 303.6940 0151055   8.5069   9.7048 14.04594769645127
FENGYUN 1C DEB          
1 37415U 99025EGH 26072.12403940  .00000319  00000+0  42412-3 0  9993
2 37415  98.9785 176.5210 0283272 311.7037  46.0176 13.52148728635432
FENGYUN 1C DEB          
1 37418U 99025EGL 26066.08447858  .00000454  00000+0  11685-2 0  9997
2 37418  98.6155 295.1503 1068728 153.0474 213.0459 11.95167557504921
FENGYUN 1C DEB          
1 37420U 99025EGN 26065.82849825  .00001011  00000+0  70104-3 0  9993
2 37420  98.8690  58.1911 0074864  42.9103 317.7869 13.99833670609411
FENGYUN 1C DEB          
1 37421U 99025EGP 26072.30352147  .00000178  00000+0  24199-3 0  9997
2 37421  98.8983  21.3195 0407289 217.9115 139.2690 13.40640384621597
FENGYUN 1C DEB          
1 37423U 99025EGR 26071.96183619  .00001058  00000+0  64339-3 0  9994
2 37423  98.7770 124.7120 0047159 264.6554  94.9234 14.07810855648798
FENGYUN 1C DEB          
1 37424U 99025EGS 26066.10153788  .00001851  00000+0  72817-3 0  9990
2 37424  97.2009 183.8119 0213122  30.6279 330.7144 14.18443239697696
FENGYUN 1C DEB          
1 37427U 99025EGV 26059.67886594  .00007014  00000+0  40639-3 0  9999
2 37427  98.6310 214.8944 0180163  42.5154 318.9857 14.99837240614902
FENGYUN 1C DEB          
1 37428U 99025EGW 26070.84056043  .00005412  00000+0  18506-2 0  9997
2 37428  97.7189 289.1728 0054622 188.8317 171.1915 14.35793359647145
FENGYUN 1C DEB          
1 37430U 99025EGY 26069.43703355  .00004938  00000+0  19324-2 0  9999
2 37430  98.7555 149.0177 0020253 169.2299 190.9320 14.29835561629541
FENGYUN 1C DEB          
1 37432U 99025EHA 26072.28738845  .00005414  00000+0  10362-2 0  9993
2 37432  98.1829  88.5542 0181053   8.3867 352.0286 14.54246225 96927
FENGYUN 1C DEB          
1 37435U 99025EHD 26067.32658716  .00002904  00000+0  13008-2 0  9994
2 37435  98.6378 107.0173 0042513 125.8281 234.6859 14.22808535901562
FENGYUN 1C DEB          
1 37436U 99025EHE 26072.91504248  .00000710  00000+0  44876-3 0  9997
2 37436  98.9224 131.1914 0058190 252.8351 106.6441 14.06531344652802
FENGYUN 1C DEB          
1 37437U 99025EHF 26055.86199256  .00000736  00000+0  35041-3 0  9994
2 37437  98.5946  50.4513 0111118 194.2224 284.2948 14.19065449650429
FENGYUN 1C DEB          
1 37441U 99025EHK 26055.34335406  .00000976  00000+0  14219-2 0  9990
2 37441  99.1453 257.4436 0508804 239.5154 115.4787 13.14402020831391
FENGYUN 1C DEB          
1 37444U 99025EHN 26070.46127714  .00004023  00000+0  73797-3 0  9998
2 37444  99.0710 162.6804 0243024  83.9682 278.9144 14.49029372664358
FENGYUN 1C DEB          
1 37448U 99025EHS 26066.46271491  .00004391  00000+0  25767-2 0  9990
2 37448  99.3082 135.9490 0307629 190.9349 168.5017 13.87576487635505
FENGYUN 1C DEB          
1 37460U 99025EJE 26073.45428037  .00006879  00000+0  17712-2 0  9995
2 37460  98.3852 253.6752 0053665  11.3187 348.9200 14.49547933838175
FENGYUN 1C DEB          
1 37461U 99025EJF 26073.37734786  .00001836  00000+0  33077-2 0  9998
2 37461  99.8702 315.7041 0659067 126.0838 240.3149 12.79361447532063
FENGYUN 1C DEB          
1 37464U 99025EJJ 26071.09467323  .00001775  00000+0  16019-2 0  9997
2 37464 102.7260  24.3915 0451310 282.4560  72.6431 13.47860254621258
FENGYUN 1C DEB          
1 37470U 99025EJQ 26071.17721231  .00240021  00000+0  93667-2 0  9997
2 37470  98.6620 231.3828 0010236 269.1021  90.9040 15.24800462668121
FENGYUN 1C DEB          
1 37474U 99025EJU 26073.35465863  .00010912  00000+0  13571-2 0  9999
2 37474  99.1605 295.7558 0126713 209.6920 149.7054 14.77171794637279
FENGYUN 1C DEB          
1 37476U 99025EJW 26071.84335314  .00002371  00000+0  61965-2 0  9990
2 37476  98.9368  72.4201 1076903  50.7273 318.4437 11.91336011685160
FENGYUN 1C DEB          
1 37477U 99025EJX 26073.27720139  .00001247  00000+0  60256-3 0  9997
2 37477  98.6071  80.4109 0036845 200.5584 159.4112 14.19984720832138
FENGYUN 1C DEB          
1 37478U 99025EJY 26070.38926833  .00002526  00000+0  39978-2 0  9993
2 37478  99.6550  48.7538 0544831 114.6485 251.2363 13.03277226577165
FENGYUN 1C DEB          
1 37589U 99025EKH 26070.51394811  .00006216  00000+0  33673-2 0  9992
2 37589  99.0737 338.6879 0120792  14.2145 346.2375 14.09165605838344
FENGYUN 1C DEB          
1 37591U 99025EKK 26072.11681891  .00025145  00000+0  54403-2 0  9996
2 37591  98.4090  23.9597 0072144  74.1890 343.5018 14.56576699677797
FENGYUN 1C DEB          
1 37594U 99025EKN 26072.79921161  .00000519  00000+0  30070-3 0  9993
2 37594  98.7240 104.6166 0085895  12.3409 347.9839 14.11220191790469
FENGYUN 1C DEB          
1 37595U 99025EKP 26070.44635713  .00035513  00000+0  49718-2 0  9999
2 37595  99.0483 294.9616 0023089  84.7224  46.7342 14.77245729639125
FENGYUN 1C DEB          
1 37683U 99025EKY 26063.54560365  .00002462  00000+0  19745-2 0  9994
2 37683  98.0009 330.7658 0582440 276.9345 210.2617 13.32446014303290
FENGYUN 1C DEB          
1 37686U 99025ELB 26059.28408746  .00000334  00000+0  47060-3 0  9995
2 37686  99.0210  73.8691 0394109 209.8027 217.4380 13.35440171616626
FENGYUN 1C DEB          
1 37687U 99025ELC 26062.30844179  .00005848  00000+0  32581-2 0  9993
2 37687  98.1986  92.6159 0337689 136.8862 287.1542 13.86110343843707
FENGYUN 1C DEB          
1 37689U 99025ELE 26073.58579084  .00011918  00000+0  30516-2 0  9998
2 37689  98.9113 124.7564 0016662 324.7317  35.2772 14.50439205591434
FENGYUN 1C DEB          
1 37691U 99025ELG 26047.53369729  .00025342  00000+0  30884-2 0  9994
2 37691  98.3705 316.8342 0269289 306.6389  51.0321 14.60850134865933
FENGYUN 1C DEB          
1 37693U 99025ELJ 26073.48206664  .00001028  00000+0  60655-3 0  9992
2 37693  98.6982  75.0098 0071482 174.4737 338.1729 14.08723029634402
FENGYUN 1C DEB          
1 37695U 99025ELL 26072.88898424  .00002644  00000+0  15824-2 0  9990
2 37695  98.1976 107.5156 0461252  16.9945 159.4138 13.65388090904952
FENGYUN 1C DEB          
1 37707U 99025ELY 26071.31298675  .00003108  00000+0  61542-3 0  9998
2 37707 100.2223 100.4372 0142034 124.6909 301.0043 14.57067722868709
FENGYUN 1C DEB          
1 37712U 99025EMD 26068.22540572  .00001734  00000+0  58171-3 0  9993
2 37712  98.8276 214.3574 0080017  98.1887  23.4115 14.36760427652026
FENGYUN 1C DEB          
1 37714U 99025EMF 26061.26292750  .00006571  00000+0  23749-2 0  9990
2 37714  98.8918 180.0227 0049711 207.5721 152.2825 14.33170876586489
FENGYUN 1C DEB          
1 37715U 99025EMG 26070.76952202  .00000934  00000+0  68174-3 0  9990
2 37715  98.9572  81.0290 0112960 227.1814 312.1025 13.95575335590452
FENGYUN 1C DEB          
1 37717U 99025EMJ 26071.15152986  .00031731  00000+0  23977-2 0  9997
2 37717  98.7428  42.3618 0047478 170.4512 252.8917 15.01399565907362
